#aV2015  1 10  0  0  0.00000000     288 DD+AD WGS84 FIT  NGA
## 1826 518400.00000000   300.00000000 57032 0.0000000000000
+   32     1  2  3  4  5  6  7  8  9 10 11 12 13 14 15 16 17
+         18 19 20 21 22 23 24 25 26 27 28 29 30 31 32  0  0
+          0  0  0  0  0  0  0  0  0  0  0  0  0  0  0  0  0
+          0  0  0  0  0  0  0  0  0  0  0  0  0  0  0  0  0
+          0  0  0  0  0  0  0  0  0  0  0  0  0  0  0  0  0
++         2  2  2  2  2  2  2  2  2  2  2  2  2  2  2  2  2
++         2  2  2  2  2  2  2  2  2  2  2  2  2  2  2  0  0
++         0  0  0  0  0  0  0  0  0  0  0  0  0  0  0  0  0
++         0  0  0  0  0  0  0  0  0  0  0  0  0  0  0  0  0
++         0  0  0  0  0  0  0  0  0  0  0  0  0  0  0  0  0
%c cc cc ccc ccc cccc cccc cccc cccc ccccc ccccc ccccc ccccc
%c cc cc ccc ccc cccc cccc cccc cccc ccccc ccccc ccccc ccccc
%f  0.0000000  0.000000000  0.00000000000  0.000000000000000
%f  0.0000000  0.000000000  0.00000000000  0.000000000000000
%i    0    0    0    0      0      0      0      0         0
%i    0    0    0    0      0      0      0      0         0
/*      NGA, ST. LOUIS,MO.                                  
/*   EPHEMERIS COMPUTED FROM  1 DAYS OF DATA                
/*   EPOCHA SMOOTHER                                       
/* CCCCCCCCCCCCCCCCCCCCCCCCCCCCCCCCCCCCCCCCCCCCCCCCCCCCCCCCC
*  2015  1 10  6  5  0.00000000
P  1  13593.092014 -22402.885518   3693.797257    -10.333512                    
V  1    544.831757   5556.893637  31425.631816      0.003729                    
P  2 -16954.719828   2696.672848 -19811.630235    540.975890                    
V  2   9048.547214 -24524.759354 -11372.012845      0.022619                    
P  3  16287.572852 -12981.921436 -16505.578251    138.213310                    
V  3  21032.319872     95.831759  20628.911829      0.256122                    
P  4  17134.554026 -15530.723206  12512.912834     -5.441593                    
V  4  -4036.459867  16334.386417  25435.948089     -0.005219                    
P  5 -26562.971829   2267.039902   -128.758868   -294.864155                    
V  5   -178.280204  -3121.453742 -31312.235532      0.050373                    
P  6 -10659.677149 -12025.946682 -21160.322431     47.530108                    
V  6  11988.307878 -24020.209241   7599.243700      0.100719                    
P  7   5586.543629 -24315.127763   8671.350669    430.178469                    
V  7   7179.365066  -8666.176997 -29597.618675      0.034210                    
P  8  17895.881741  -6140.556436 -18124.210201     17.094778                    
V  8 -11572.267206  20660.206473 -18824.835718      0.000994                    
P  9  -4378.722773 -22574.414733 -13290.356598    -50.784986                    
V  9  11541.450873  12522.985277 -25092.435764     -0.110258                    
P 10 -18875.293390 -10427.894874 -16154.734959   -158.116024                    
V 10  19521.057240  -3348.370321 -20720.344997     -0.016395                    
P 11  11949.126854 -19992.955513  12109.826569   -549.768371                    
V 11   2468.339256  16788.196160  24395.932047     -0.026316                    
P 12 -19100.677769  10627.838513 -15011.665969    260.207994                    
V 12 -19001.034220   -796.028729  23943.728570      0.029356                    
P 13 -17146.154851  -3508.099482  19790.313499    -77.363082                    
V 13 -11158.529151 -22906.912895 -13744.701066     -0.033741                    
P 14  15279.585063  21529.285553  -3331.482269     98.240744                    
V 14    146.060770   5122.593441  31446.312690     -0.035397                    
P 15 -11392.110814  10955.579129  21247.613427   -225.441578                    
V 15 -16837.357253 -21485.793668   2359.294264     -0.022318                    
P 16  26761.176963   -487.939903    -81.472225   -166.210444                    
V 16     -0.222451   1593.622152 -32126.994772      0.031366                    
P 17 -14852.475273 -22122.329515  -1136.560531   -149.109453                    
V 17   1006.715896  -2731.941976  31793.603916     -0.021931                    
P 18   4429.443911  15772.844084  21402.129250    371.225222                    
V 18 -26060.252200   2822.605738   3074.695879      0.027038                    
P 19  14552.437714  -4467.186676  21627.061637   -496.033261                    
V 19  13521.563635  24301.638269  -3604.501015     -0.014856                    
P 20   4527.869137 -16371.900056 -20612.556828    276.988935                    
V 20  25732.622251  -2888.357894   8111.172260      0.042121                    
P 21    505.740894  23029.100693  13532.971565   -405.325076                    
V 21  -9476.016833  13624.862534 -24441.166767     -0.022811                    
P 22  17591.422453  11088.450655  16832.148852    305.756936                    
V 22 -20705.710498   4332.431779  18859.212722      0.040599                    
P 23   5424.080961 -16847.149593 -19542.064474    -80.635839                    
V 23  15551.091061  19976.430500 -13239.179175     -0.026793                    
P 24 -14812.191224  20858.903921   6852.088026    -41.531280                    
V 24    934.043988  -9209.176275  30085.716160     -0.006527                    
P 25  -5906.112112  14876.754739 -21246.124251      4.196539                    
V 25 -26738.330079   1572.823305   8712.278168     -0.023822                    
P 26 -17192.347300  -3910.147093  19287.843868 999999.999999                    
V 26 -11550.339806 -23126.094613 -14224.879926      0.000177                    
P 27  18887.359953   5471.698566  17884.459751     43.253099                    
V 27  11762.388572  19452.244112 -18278.597511      0.026866                    
P 28 -12446.586973 -13091.506042  20135.048162    411.403611                    
V 28  24091.376887  -1031.435771  14581.858635      0.026191                    
P 29    937.993394  21585.234234 -15441.466256    584.999213                    
V 29 -11782.404810 -15789.561893 -22703.664152      0.023463                    
P 30  -2530.010079 -20056.344448  17201.639424    -86.413349                    
V 30  12381.059088 -18122.419174 -19353.342447     -0.001434                    
P 31  11848.220786   9135.538551 -21776.212431    325.774266                    
V 31 -13092.052647  24732.003547   3555.746985     -0.007471                    
P 32  24820.477286  -5031.425763  -6996.913313   -250.998436                    
V 32   9038.265985   3545.381335  30058.313269      0.086814                    
EOF
